{
  "type": "FeatureCollection",
  "features": [
    {
      "type": "Feature",
      "properties": {
        "norad_id": 31005,
        "name": "FENGYUN 1C DEB",
        "group": "fengyun-1c-debris",
        "lat": 44.793878589160755,
        "lon": -39.893029156625126,
        "alt_km": 1071.1070396087907,
        "timestamp": "2025-12-24T16:52:41.812089+00:00",
        "meta_object_name": "FENGYUN 1C DEB",
        "meta_object_id": "1999-025BCX",
        "meta_epoch": "2025-12-19T20:39:31.442112",
        "meta_mean_motion": 13.83298695,
        "meta_eccentricity": 0.01808266,
        "meta_inclination": 98.6131,
        "meta_ra_of_asc_node": 127.0159,
        "meta_arg_of_pericenter": 305.9328,
        "meta_mean_anomaly": 207.436,
        "meta_ephemeris_type": 0,
        "meta_classification_type": "U",
        "meta_norad_cat_id": 31005,
        "meta_element_set_no": 999,
        "meta_rev_at_epoch": 94379,
        "meta_bstar": 0.00095824109,
        "meta_mean_motion_dot": 1.153e-05,
        "meta_mean_motion_ddot": 0,
        "tle_line1": "1 31005U 99025BCX 25353.86078058  .00001153  00000+0  95824-3 0  9994",
        "tle_line2": "2 31005  98.6131 127.0159 0180826 305.9328 207.4360 13.83298695943797"
      },
      "geometry": {
        "type": "Point",
        "coordinates": [
          -39.893029156625126,
          44.793878589160755
        ]
      }
    },
    {
      "type": "Feature",
      "properties": {
        "norad_id": 31007,
        "name": "FENGYUN 1C DEB",
        "group": "fengyun-1c-debris",
        "lat": -26.662127019252342,
        "lon": 166.0957378221978,
        "alt_km": 744.9450428737255,
        "timestamp": "2025-12-24T16:52:41.812100+00:00",
        "meta_object_name": "FENGYUN 1C DEB",
        "meta_object_id": "1999-025BCZ",
        "meta_epoch": "2025-12-23T10:18:07.943904",
        "meta_mean_motion": 14.58852316,
        "meta_eccentricity": 0.00666368,
        "meta_inclination": 98.0883,
        "meta_ra_of_asc_node": 348.9498,
        "meta_arg_of_pericenter": 5.1662,
        "meta_mean_anomaly": 355.0211,
        "meta_ephemeris_type": 0,
        "meta_classification_type": "U",
        "meta_norad_cat_id": 31007,
        "meta_element_set_no": 999,
        "meta_rev_at_epoch": 98250,
        "meta_bstar": 0.0023416257,
        "meta_mean_motion_dot": 0.00011269,
        "meta_mean_motion_ddot": 0,
        "tle_line1": "1 31007U 99025BCZ 25357.42925861  .00011269  00000+0  23416-2 0  9991",
        "tle_line2": "2 31007  98.0883 348.9498 0066636   5.1662 355.0211 14.58852316982505"
      },
      "geometry": {
        "type": "Point",
        "coordinates": [
          166.0957378221978,
          -26.662127019252342
        ]
      }
    },
    {
      "type": "Feature",
      "properties": {
        "norad_id": 31009,
        "name": "FENGYUN 1C DEB",
        "group": "fengyun-1c-debris",
        "lat": 53.73704865377711,
        "lon": -173.46729739643308,
        "alt_km": 879.3235793233707,
        "timestamp": "2025-12-24T16:52:41.812110+00:00",
        "meta_object_name": "FENGYUN 1C DEB",
        "meta_object_id": "1999-025BDB",
        "meta_epoch": "2025-12-23T23:23:56.950080",
        "meta_mean_motion": 14.00367369,
        "meta_eccentricity": 0.0053197,
        "meta_inclination": 98.8965,
        "meta_ra_of_asc_node": 353.4956,
        "meta_arg_of_pericenter": 205.4942,
        "meta_mean_anomaly": 210.7791,
        "meta_ephemeris_type": 0,
        "meta_classification_type": "U",
        "meta_norad_cat_id": 31009,
        "meta_element_set_no": 999,
        "meta_rev_at_epoch": 96018,
        "meta_bstar": 6.4156e-05,
        "meta_mean_motion_dot": 5.3e-07,
        "meta_mean_motion_ddot": 0,
        "tle_line1": "1 31009U 99025BDB 25357.97496470  .00000053  00000+0  64156-4 0  9999",
        "tle_line2": "2 31009  98.8965 353.4956 0053197 205.4942 210.7791 14.00367369960186"
      },
      "geometry": {
        "type": "Point",
        "coordinates": [
          -173.46729739643308,
          53.73704865377711
        ]
      }
    },
    {
      "type": "Feature",
      "properties": {
        "norad_id": 31010,
        "name": "FENGYUN 1C DEB",
        "group": "fengyun-1c-debris",
        "lat": -27.099686524087417,
        "lon": -36.40030126999463,
        "alt_km": 845.1832946968225,
        "timestamp": "2025-12-24T16:52:41.812120+00:00",
        "meta_object_name": "FENGYUN 1C DEB",
        "meta_object_id": "1999-025BDC",
        "meta_epoch": "2025-12-24T04:06:40.597344",
        "meta_mean_motion": 14.25972086,
        "meta_eccentricity": 0.01134745,
        "meta_inclination": 101.7255,
        "meta_ra_of_asc_node": 148.9908,
        "meta_arg_of_pericenter": 324.5578,
        "meta_mean_anomaly": 34.8087,
        "meta_ephemeris_type": 0,
        "meta_classification_type": "U",
        "meta_norad_cat_id": 31010,
        "meta_element_set_no": 999,
        "meta_rev_at_epoch": 95792,
        "meta_bstar": 0.0034541977,
        "meta_mean_motion_dot": 8.758e-05,
        "meta_mean_motion_ddot": 0,
        "tle_line1": "1 31010U 99025BDC 25358.17130321  .00008758  00000+0  34542-2 0  9998",
        "tle_line2": "2 31010 101.7255 148.9908 0113474 324.5578  34.8087 14.25972086957927"
      },
      "geometry": {
        "type": "Point",
        "coordinates": [
          -36.40030126999463,
          -27.099686524087417
        ]
      }
    },
    {
      "type": "Feature",
      "properties": {
        "norad_id": 31012,
        "name": "FENGYUN 1C DEB",
        "group": "fengyun-1c-debris",
        "lat": 32.84193205993181,
        "lon": -108.76899832379165,
        "alt_km": 855.2750469330103,
        "timestamp": "2025-12-24T16:52:41.812131+00:00",
        "meta_object_name": "FENGYUN 1C DEB",
        "meta_object_id": "1999-025BDE",
        "meta_epoch": "2025-12-23T12:43:05.152800",
        "meta_mean_motion": 14.2787236,
        "meta_eccentricity": 0.00815586,
        "meta_inclination": 98.9115,
        "meta_ra_of_asc_node": 255.8472,
        "meta_arg_of_pericenter": 219.744,
        "meta_mean_anomaly": 265.6252,
        "meta_ephemeris_type": 0,
        "meta_classification_type": "U",
        "meta_norad_cat_id": 31012,
        "meta_element_set_no": 999,
        "meta_rev_at_epoch": 97901,
        "meta_bstar": 0.00015771104,
        "meta_mean_motion_dot": 3.58e-06,
        "meta_mean_motion_ddot": 0,
        "tle_line1": "1 31012U 99025BDE 25357.52992075  .00000358  00000+0  15771-3 0  9992",
        "tle_line2": "2 31012  98.9115 255.8472 0081558 219.7440 265.6252 14.27872360979013"
      },
      "geometry": {
        "type": "Point",
        "coordinates": [
          -108.76899832379165,
          32.84193205993181
        ]
      }
    },
    {
      "type": "Feature",
      "properties": {
        "norad_id": 31014,
        "name": "FENGYUN 1C DEB",
        "group": "fengyun-1c-debris",
        "lat": 72.09550523802636,
        "lon": -177.1785491589196,
        "alt_km": 854.6515306415986,
        "timestamp": "2025-12-24T16:52:41.812141+00:00",
        "meta_object_name": "FENGYUN 1C DEB",
        "meta_object_id": "1999-025BDG",
        "meta_epoch": "2025-12-24T04:40:14.082816",
        "meta_mean_motion": 13.98493044,
        "meta_eccentricity": 0.0088475,
        "meta_inclination": 98.8695,
        "meta_ra_of_asc_node": 333.4275,
        "meta_arg_of_pericenter": 161.9088,
        "meta_mean_anomaly": 265.0518,
        "meta_ephemeris_type": 0,
        "meta_classification_type": "U",
        "meta_norad_cat_id": 31014,
        "meta_element_set_no": 999,
        "meta_rev_at_epoch": 95996,
        "meta_bstar": -9.5736895e-05,
        "meta_mean_motion_dot": -1.84e-06,
        "meta_mean_motion_ddot": 0,
        "tle_line1": "1 31014U 99025BDG 25358.19460744 -.00000184  00000+0 -95737-4 0  9991",
        "tle_line2": "2 31014  98.8695 333.4275 0088475 161.9088 265.0518 13.98493044959968"
      },
      "geometry": {
        "type": "Point",
        "coordinates": [
          -177.1785491589196,
          72.09550523802636
        ]
      }
    },
    {
      "type": "Feature",
      "properties": {
        "norad_id": 31016,
        "name": "FENGYUN 1C DEB",
        "group": "fengyun-1c-debris",
        "lat": 24.410657462794834,
        "lon": -161.96513063817562,
        "alt_km": 779.0691248676121,
        "timestamp": "2025-12-24T16:52:41.812151+00:00",
        "meta_object_name": "FENGYUN 1C DEB",
        "meta_object_id": "1999-025BDJ",
        "meta_epoch": "2025-12-23T23:38:38.001984",
        "meta_mean_motion": 14.30511594,
        "meta_eccentricity": 0.0112136,
        "meta_inclination": 98.4358,
        "meta_ra_of_asc_node": 13.4764,
        "meta_arg_of_pericenter": 240.6193,
        "meta_mean_anomaly": 179.8775,
        "meta_ephemeris_type": 0,
        "meta_classification_type": "U",
        "meta_norad_cat_id": 31016,
        "meta_element_set_no": 999,
        "meta_rev_at_epoch": 97631,
        "meta_bstar": 0.0002533,
        "meta_mean_motion_dot": 6.63e-06,
        "meta_mean_motion_ddot": 0,
        "tle_line1": "1 31016U 99025BDJ 25357.98516206  .00000663  00000+0  25330-3 0  9995",
        "tle_line2": "2 31016  98.4358  13.4764 0112136 240.6193 179.8775 14.30511594976317"
      },
      "geometry": {
        "type": "Point",
        "coordinates": [
          -161.96513063817562,
          24.410657462794834
        ]
      }
    }
  ]
}